[{"OBJECT_NAME":"O3B MPOWER F9","OBJECT_ID":"2025-153A","EPOCH":"2026-04-05T00:22:59.998944","MEAN_MOTION":5.00116291,"ECCENTRICITY":0.00051755,"INCLINATION":0.0511,"RA_OF_ASC_NODE":14.8201,"ARG_OF_PERICENTER":25.5245,"MEAN_ANOMALY":319.6924,"EPHEMERIS_TYPE":0,"CLASSIFICATION_TYPE":"U","NORAD_CAT_ID":64866,"ELEMENT_SET_NO":999,"REV_AT_EPOCH":1590,"BSTAR":0,"MEAN_MOTION_DOT":-2.6e-7,"MEAN_MOTION_DDOT":0},{"OBJECT_NAME":"O3B MPOWER F10","OBJECT_ID":"2025-153B","EPOCH":"2026-04-04T23:33:49.658400","MEAN_MOTION":5.00115052,"ECCENTRICITY":0.00035772,"INCLINATION":0.0518,"RA_OF_ASC_NODE":9.9961,"ARG_OF_PERICENTER":256.6258,"MEAN_ANOMALY":93.3359,"EPHEMERIS_TYPE":0,"CLASSIFICATION_TYPE":"U","NORAD_CAT_ID":64867,"ELEMENT_SET_NO":999,"REV_AT_EPOCH":1837,"BSTAR":0,"MEAN_MOTION_DOT":-2.6e-7,"MEAN_MOTION_DDOT":0}]
